NORAD_CAT_ID,OBJECT_NAME,OBJECT_TYPE,EPOCH,MEAN_MOTION,ECCENTRICITY,INCLINATION,RA_OF_ASC_NODE,ARG_OF_PERICENTER,MEAN_ANOMALY,BSTAR,MEAN_MOTION_DOT,MEAN_MOTION_DDOT,TLE_LINE0,TLE_LINE1,TLE_LINE2,SEMIMAJOR_AXIS,PERIOD,APOGEE,PERIGEE,DECAYED
54167.0,STARLINK-5243,PAYLOAD,2023-03-15 03:10:19,15.08862353,0.0001935,53.2216,229.5738,88.4475,271.6739,-0.00062588,-0.00010242,0.0,0 STARLINK-5243,1 54167U 22141L   23074.13217135 -.00010242  00000-0 -62588-3 0  9995,2 54167  53.2216 229.5738 0001935  88.4475 271.6739 15.08862353 21081,6917.812,95.436,541.016,538.338,0.0
54167.0,STARLINK-5243,PAYLOAD,2023-03-15 20:39:32,15.08856525,9.82e-05,53.2095,226.3017,266.8027,93.2852,0.00021906,3.202e-05,0.0,0 STARLINK-5243,1 54167U 22141L   23074.86079550  .00003202  00000-0  21906-3 0  9997,2 54167  53.2095 226.3017 0000982 266.8027  93.2852 15.08856525 21197,6917.83,95.437,540.374,539.016,0.0
54167.0,STARLINK-5243,PAYLOAD,2023-03-16 09:22:39,15.08825794,0.0001311,53.2134,223.9243,94.1954,265.9188,-0.00029485,-4.975e-05,0.0,0 STARLINK-5243,1 54167U 22141L   23075.39073776 -.00004975  00000-0 -29485-3 0  9990,2 54167  53.2134 223.9243 0001311  94.1954 265.9188 15.08825794 21265,6917.924,95.438,540.696,538.882,0.0
54167.0,STARLINK-5243,PAYLOAD,2023-03-16 18:54:58,15.08826246,0.0001504,53.2128,222.1398,92.3705,267.7459,-0.00016941,-2.982e-05,0.0,0 STARLINK-5243,1 54167U 22141L   23075.78818155 -.00002982  00000-0 -16941-3 0  9990,2 54167  53.2128 222.1398 0001504  92.3705 267.7459 15.08826246 21330,6917.922,95.438,540.828,538.747,0.0
54167.0,STARLINK-5243,PAYLOAD,2023-03-17 09:13:27,15.08816855,2.54e-05,53.2146,219.4621,144.2137,215.8872,-0.00010092,-1.892e-05,0.0,0 STARLINK-5243,1 54167U 22141L   23076.38434810 -.00001892  00000-0 -10092-3 0  9999,2 54167  53.2146 219.4621 0000254 144.2137 215.8872 15.08816855 21423,6917.951,95.439,539.992,539.64,0.0
54167.0,STARLINK-5243,PAYLOAD,2023-03-17 18:45:47,15.08819714,0.0001078,53.2107,217.6789,90.2128,269.8987,0.00079796,0.00012427,0.0,0 STARLINK-5243,1 54167U 22141L   23076.78179497  .00012427  00000-0  79796-3 0  9990,2 54167  53.2107 217.6789 0001078  90.2128 269.8987 15.08819714 21478,6917.942,95.439,540.553,539.062,0.0
54167.0,STARLINK-5243,PAYLOAD,2023-03-18 02:42:42,15.08836216,0.0001337,53.2137,216.1935,82.9821,277.1323,0.00071057,0.00011038,0.0,0 STARLINK-5243,1 54167U 22141L   23077.11299186  .00011038  00000-0  71057-3 0  9995,2 54167  53.2137 216.1935 0001337  82.9821 277.1323 15.08836216 21522,6917.892,95.438,540.682,538.832,0.0
54167.0,STARLINK-5243,PAYLOAD,2023-03-18 12:15:00,15.08852463,0.0001463,53.2123,214.4081,90.0189,270.097,0.00054839,8.453e-05,0.0,0 STARLINK-5243,1 54167U 22141L   23077.51042314  .00008453  00000-0  54839-3 0  9994,2 54167  53.2123 214.4081 0001463  90.0189 270.0970 15.08852463 21585,6917.842,95.437,540.719,538.695,0.0
54167.0,STARLINK-5243,PAYLOAD,2023-03-18 18:36:32,15.08876505,0.0001383,53.214,213.2175,96.0395,264.0755,0.0010655,0.00016727,0.0,0 STARLINK-5243,1 54167U 22141L   23077.77537604  .00016727  00000-0  10655-2 0  9993,2 54167  53.2140 213.2175 0001383  96.0395 264.0755 15.08876505 21623,6917.769,95.435,540.591,538.677,0.0
54167.0,STARLINK-5243,PAYLOAD,2023-03-18 20:11:55,15.08882741,0.0001371,53.2143,212.9206,94.3652,265.7496,0.0012164,0.00019147,0.0,0 STARLINK-5243,1 54167U 22141L   23077.84161362  .00019147  00000-0  12164-2 0  9991,2 54167  53.2143 212.9206 0001371  94.3652 265.7496 15.08882741 21642,6917.75,95.435,540.563,538.666,0.0
54167.0,STARLINK-5243,PAYLOAD,2023-03-19 02:33:28,15.08847945,0.0001594,53.2144,211.7317,78.0401,282.077,-0.00014883,-2.656e-05,0.0,0 STARLINK-5243,1 54167U 22141L   23078.10657916 -.00002656  00000-0 -14883-3 0  9996,2 54167  53.2144 211.7317 0001594  78.0401 282.0770 15.08847945 21678,6917.856,95.437,540.824,538.618,0.0
54167.0,STARLINK-5243,PAYLOAD,2023-03-19 13:41:10,15.08856261,0.0001441,53.2149,209.6496,82.8054,277.3102,0.00042957,6.558e-05,0.0,0 STARLINK-5243,1 54167U 22141L   23078.57025534  .00006558  00000-0  42957-3 0  9998,2 54167  53.2149 209.6496 0001441  82.8054 277.3102 15.08856261 21751,6917.831,95.437,540.693,538.699,0.0
54167.0,STARLINK-5243,PAYLOAD,2023-03-19 18:27:19,15.08860684,0.0001494,53.2149,208.7576,77.5364,282.5795,0.00075622,0.00011775,0.0,0 STARLINK-5243,1 54167U 22141L   23078.76897398  .00011775  00000-0  75622-3 0  9996,2 54167  53.2149 208.7576 0001494  77.5364 282.5795 15.08860684 21775,6917.817,95.436,540.716,538.649,0.0
54167.0,STARLINK-5243,PAYLOAD,2023-03-20 11:56:34,15.08844799,0.0001377,53.2158,205.4867,48.464,311.647,0.00097858,0.00015322,0.0,0 STARLINK-5243,1 54167U 22141L   23079.49762002  .00015322  00000-0  97858-3 0  9997,2 54167  53.2158 205.4867 0001377  48.4640 311.6470 15.08844799 21881,6917.866,95.437,540.683,538.778,0.0
54167.0,STARLINK-5243,PAYLOAD,2023-03-20 13:31:57,15.08843871,0.0001416,53.2148,205.1877,68.0158,292.0985,0.00044254,6.763e-05,0.0,0 STARLINK-5243,1 54167U 22141L   23079.56385893  .00006763  00000-0  44254-3 0  9995,2 54167  53.2148 205.1877 0001416  68.0158 292.0985 15.08843871 21900,6917.869,95.437,540.713,538.754,0.0
54167.0,STARLINK-5243,PAYLOAD,2023-03-21 00:39:39,15.0883059,0.0001475,53.2159,203.1082,79.6677,280.4481,-8.1022e-05,-1.577e-05,0.0,0 STARLINK-5243,1 54167U 22141L   23080.02754025 -.00001577  00000-0 -81022-4 0  9990,2 54167  53.2159 203.1082 0001475  79.6677 280.4481 15.08830590 21969,6917.909,95.438,540.795,538.754,0.0
54167.0,STARLINK-5243,PAYLOAD,2023-03-21 11:47:21,15.08850985,0.0001216,53.216,201.0269,77.0989,283.0138,0.0011893,0.00018696,0.0,0 STARLINK-5243,1 54167U 22141L   23080.49121825  .00018696  00000-0  11893-2 0  9992,2 54167  53.2160 201.0269 0001216  77.0989 283.0138 15.08850985 22033,6917.847,95.437,540.553,538.871,0.0
54167.0,STARLINK-5243,PAYLOAD,2023-03-21 13:22:44,15.08853882,0.0001212,53.2159,200.7299,79.8014,280.3114,0.0020233,0.00032072,0.0,0 STARLINK-5243,1 54167U 22141L   23080.55745837  .00032072  00000-0  20233-2 0  9996,2 54167  53.2159 200.7299 0001212  79.8014 280.3114 15.08853882 22050,6917.838,95.437,540.541,538.865,0.0
54167.0,STARLINK-5243,PAYLOAD,2023-03-22 00:30:26,15.08856054,0.0001465,53.2159,198.6473,87.0877,273.0282,0.0010467,0.00016417,0.0,0 STARLINK-5243,1 54167U 22141L   23081.02113743  .00016417  00000-0  10467-2 0  9997,2 54167  53.2159 198.6473 0001465  87.0877 273.0282 15.08856054 22113,6917.831,95.437,540.71,538.683,0.0
54167.0,STARLINK-5243,PAYLOAD,2023-03-22 11:38:08,15.08848699,0.0001311,53.2154,196.5666,103.5971,256.5167,0.00060242,9.315e-05,0.0,0 STARLINK-5243,1 54167U 22141L   23081.48481777  .00009315  00000-0  60242-3 0  9998,2 54167  53.2154 196.5666 0001311 103.5971 256.5167 15.08848699 22189,6917.854,95.437,540.626,538.812,0.0
54167.0,STARLINK-5243,PAYLOAD,2023-03-22 17:59:40,15.08864394,0.000136,53.2162,195.3771,98.9447,261.17,0.0022391,0.00035551,0.0,0 STARLINK-5243,1 54167U 22141L   23081.74977664  .00035551  00000-0  22391-2 0  9995,2 54167  53.2162 195.3771 0001360  98.9447 261.1700 15.08864394 22221,6917.806,95.436,540.612,538.73,0.0
54167.0,STARLINK-5243,PAYLOAD,2023-03-23 11:28:55,15.08851393,0.0001324,53.2158,192.107,116.1296,243.9832,0.0015655,0.00024723,0.0,0 STARLINK-5243,1 54167U 22141L   23082.47841918  .00024723  00000-0  15655-2 0  9992,2 54167  53.2158 192.1070 0001324 116.1296 243.9832 15.08851393 22339,6917.846,95.437,540.626,538.795,0.0
54167.0,STARLINK-5243,PAYLOAD,2023-03-23 13:04:18,15.08853437,0.0001298,53.2159,191.8084,116.6975,243.415,0.0017633,0.00027897,0.0,0 STARLINK-5243,1 54167U 22141L   23082.54465883  .00027897  00000-0  17633-2 0  9996,2 54167  53.2159 191.8084 0001298 116.6975 243.4150 15.08853437 22351,6917.839,95.437,540.602,538.806,0.0
54167.0,STARLINK-5243,PAYLOAD,2023-03-23 14:39:41,15.08847089,0.0001324,53.2155,191.516,109.0392,251.0744,0.0011634,0.0001828,0.0,0 STARLINK-5243,1 54167U 22141L   23082.61089964  .00018280  00000-0  11634-2 0  9997,2 54167  53.2155 191.5160 0001324 109.0392 251.0744 15.08847089 22358,6917.859,95.437,540.64,538.808,0.0
54167.0,STARLINK-5243,PAYLOAD,2023-03-24 06:33:31,15.08922838,0.000133,53.2163,188.5397,96.9884,263.1259,0.0036473,0.00058372,0.0,0 STARLINK-5243,1 54167U 22141L   23083.27328640  .00058372  00000-0  36473-2 0  9991,2 54167  53.2163 188.5397 0001330  96.9884 263.1259 15.08922838 22454,6917.627,95.432,540.412,538.572,0.0
54167.0,STARLINK-5243,PAYLOAD,2023-03-24 12:55:03,15.08914913,0.0001505,53.2152,187.3528,86.6787,273.4377,0.0023064,0.00036685,0.0,0 STARLINK-5243,1 54167U 22141L   23083.53823574  .00036685  00000-0  23064-2 0  9991,2 54167  53.2152 187.3528 0001505  86.6787 273.4377 15.08914913 22491,6917.651,95.433,540.558,538.475,0.0
54167.0,STARLINK-5243,PAYLOAD,2023-03-24 16:05:48,15.08945783,0.0001472,53.2152,186.7563,94.7992,265.3169,0.0035242,0.00056412,0.0,0 STARLINK-5243,1 54167U 22141L   23083.67070565  .00056412  00000-0  35242-2 0  9991,2 54167  53.2152 186.7563 0001472  94.7992 265.3169 15.08945783 22515,6917.557,95.431,540.44,538.404,0.0
54167.0,STARLINK-5243,PAYLOAD,2023-03-25 00:02:45,15.08870445,0.0002301,53.2155,185.2688,65.8107,294.3126,-0.00047159,-7.792e-05,0.0,0 STARLINK-5243,1 54167U 22141L   23084.00190979 -.00007792  00000-0 -47159-3 0  9991,2 54167  53.2155 185.2688 0002301  65.8107 294.3126 15.08870445 22561,6917.787,95.436,541.244,538.061,0.0
54167.0,STARLINK-5243,PAYLOAD,2023-03-25 11:10:27,15.08821629,0.0001382,53.2151,183.1891,54.1454,305.9666,0.00076966,0.00011976,0.0,0 STARLINK-5243,1 54167U 22141L   23084.46559627  .00011976  00000-0  76966-3 0  9995,2 54167  53.2151 183.1891 0001382  54.1454 305.9666 15.08821629 22630,6917.937,95.439,540.758,538.845,0.0
54167.0,STARLINK-5243,PAYLOAD,2023-03-25 15:56:37,15.08827224,0.0001582,53.2146,182.2964,53.7047,306.4091,0.0018636,0.00029485,0.0,0 STARLINK-5243,1 54167U 22141L   23084.66431857  .00029485  00000-0  18636-2 0  9994,2 54167  53.2146 182.2964 0001582  53.7047 306.4091 15.08827224 22679,6917.919,95.438,540.879,538.69,0.0
